COSMOS 2251 DEB         
1 35644U 93036ANK 17345.40040113  .00003903  00000-0  33649-3 0  9999
2 35644  74.0093 265.2352 0021589  89.0895 271.2764 14.97508220466065
